{"type": "FeatureCollection", "metadata": {"note": "Current sourced freight corridors rendered as schematic endpoint connections where exact route geometry is not public."}, "features": [{"type": "Feature", "properties": {"company": "Aurora", "market": "El Paso\u2013Phoenix", "state": "AZ", "phase": "deployment", "activity_type": "deployment", "evidence_status": "current", "status": "driverless_commercial", "mode": "freight", "event_date": "2026-09-22", "source_url": "https://ir.aurora.tech/news-events/press-releases/detail/132/aurora-triples-driverless-network-to-10-routes-and-prepares-to-expand-across-u-s-sun-belt", "geometry_basis": "route_corridor_endpoint_connection", "geometry_precision": "schematic_endpoints_not_exact_route", "historical_baseline": false}, "geometry": {"type": "LineString", "coordinates": [[-106.485, 31.7619], [-112.074, 33.4484]]}}, {"type": "Feature", "properties": {"company": "Aurora", "market": "Fort Worth\u2013Phoenix", "state": "AZ", "phase": "deployment", "activity_type": "deployment", "evidence_status": "current", "status": "driverless_commercial", "mode": "freight", "event_date": "2026-09-22", "source_url": "https://ir.aurora.tech/sec-filings/all-sec-filings/content/0001828108-26-000075/aurora26q2shareholderlet.htm", "geometry_basis": "route_corridor_endpoint_connection", "geometry_precision": "schematic_endpoints_not_exact_route", "historical_baseline": false}, "geometry": {"type": "LineString", "coordinates": [[-97.3308, 32.7555], [-112.074, 33.4484]]}}, {"type": "Feature", "properties": {"company": "Aurora", "market": "Dallas\u2013Oklahoma City", "state": "OK", "phase": "testing", "activity_type": "testing", "evidence_status": "current", "status": "supervised_autonomous_operations", "mode": "freight", "event_date": "2026-09-22", "source_url": "https://ir.aurora.tech/news-events/press-releases/detail/139/aurora-announces-first-quarter-2026-results", "geometry_basis": "route_corridor_endpoint_connection", "geometry_precision": "schematic_endpoints_not_exact_route", "historical_baseline": false}, "geometry": {"type": "LineString", "coordinates": [[-96.797, 32.7767], [-97.5164, 35.4676]]}}, {"type": "Feature", "properties": {"company": "Aurora", "market": "Dallas\u2013Houston", "state": "TX", "phase": "deployment", "activity_type": "deployment", "evidence_status": "current", "status": "driverless_commercial", "mode": "freight", "event_date": "2026-09-22", "source_url": "https://ir.aurora.tech/sec-filings/all-sec-filings/content/0001828108-26-000075/aurora26q2shareholderlet.htm", "geometry_basis": "route_corridor_endpoint_connection", "geometry_precision": "schematic_endpoints_not_exact_route", "historical_baseline": false}, "geometry": {"type": "LineString", "coordinates": [[-96.797, 32.7767], [-95.3698, 29.7604]]}}, {"type": "Feature", "properties": {"company": "Aurora", "market": "Dallas\u2013Laredo", "state": "TX", "phase": "deployment", "activity_type": "deployment", "evidence_status": "current", "status": "driverless_commercial", "mode": "freight", "event_date": "2026-09-22", "source_url": "https://ir.aurora.tech/sec-filings/all-sec-filings/content/0001828108-26-000075/aurora26q2shareholderlet.htm", "geometry_basis": "route_corridor_endpoint_connection", "geometry_precision": "schematic_endpoints_not_exact_route", "historical_baseline": false}, "geometry": {"type": "LineString", "coordinates": [[-96.797, 32.7767], [-99.5075, 27.5306]]}}, {"type": "Feature", "properties": {"company": "Aurora", "market": "Fort Worth\u2013El Paso", "state": "TX", "phase": "deployment", "activity_type": "deployment", "evidence_status": "current", "status": "driverless_commercial", "mode": "freight", "event_date": "2026-09-22", "source_url": "https://ir.aurora.tech/news-events/press-releases/detail/132/aurora-triples-driverless-network-to-10-routes-and-prepares-to-expand-across-u-s-sun-belt", "geometry_basis": "route_corridor_endpoint_connection", "geometry_precision": "schematic_endpoints_not_exact_route", "historical_baseline": false}, "geometry": {"type": "LineString", "coordinates": [[-97.3308, 32.7555], [-106.485, 31.7619]]}}, {"type": "Feature", "properties": {"company": "Kodiak AI", "market": "Dallas\u2013Houston", "state": "TX", "phase": "deployment", "activity_type": "deployment", "evidence_status": "current", "status": "commercial_autonomous_freight", "mode": "freight", "event_date": "2026-09-22", "source_url": "https://kodiak.ai/news/roehl-transport-autonomous-freight", "geometry_basis": "route_corridor_endpoint_connection", "geometry_precision": "schematic_endpoints_not_exact_route", "historical_baseline": false}, "geometry": {"type": "LineString", "coordinates": [[-96.797, 32.7767], [-95.3698, 29.7604]]}}, {"type": "Feature", "properties": {"company": "Waabi", "market": "Dallas\u2013Houston", "state": "TX", "phase": "deployment", "activity_type": "deployment", "evidence_status": "current", "status": "commercial_autonomous_freight", "mode": "freight", "event_date": "2026-09-22", "source_url": "https://waabi.ai/insights/80percent-growth-on-long-hauls-toughest-corridor", "geometry_basis": "route_corridor_endpoint_connection", "geometry_precision": "schematic_endpoints_not_exact_route", "historical_baseline": false}, "geometry": {"type": "LineString", "coordinates": [[-96.797, 32.7767], [-95.3698, 29.7604]]}}]}